start=new Date('2022-06-28T00:00:00.000Z').valueOf();
sats=[{"INCLINATION":"52.9928","GP_ID":"206989434","PERIOD":"91.131","MEAN_ANOMALY":"358.4177","MEAN_MOTION_DDOT":"0.0000000000000","ECCENTRICITY":"0.00113990","CLASSIFICATION_TYPE":"U","SITE":"AFETR","EPHEMERIS_TYPE":"0","COUNTRY_CODE":"US","MEAN_MOTION":"15.80145786","REV_AT_EPOCH":"11727","TLE_LINE2":"2 45752  52.9928 202.7981 0011399   1.6879 358.4177 15.80145786117271","EPOCH":"2022-06-27T19:09:52.788960","CENTER_NAME":"EARTH","TIME_SYSTEM":"UTC","MEAN_MOTION_DOT":"0.00033814","PERIAPSIS":"322.383","MEAN_ELEMENT_THEORY":"SGP4","RCS_SIZE":"LARGE","OBJECT_NAME":"STARLINK-1469","APOAPSIS":"337.677","BSTAR":"0.00017933000000","OBJECT_TYPE":"PAYLOAD","ARG_OF_PERICENTER":"1.6879","FILE":"3504144","LAUNCH_DATE":"2020-06-13","OBJECT_ID":"2020-038Y","ELEMENT_SET_NO":"999","SEMIMAJOR_AXIS":"6708.165","RA_OF_ASC_NODE":"202.7981","TLE_LINE1":"1 45752U 20038Y   22178.79852765  .00033814  00000-0  17933-3 0  9990","DECAY_DATE":null,"REF_FRAME":"TEME","NORAD_CAT_ID":"45752"},{"REV_AT_EPOCH":"11285","TLE_LINE2":"2 45753  53.0523 161.5075 0002015  64.8922 295.2276 15.06401331112852","TIME_SYSTEM":"UTC","CENTER_NAME":"EARTH","EPOCH":"2022-06-27T16:29:58.880256","MEAN_ELEMENT_THEORY":"SGP4","RCS_SIZE":"LARGE","MEAN_MOTION_DOT":"0.00000375","PERIAPSIS":"545.814","APOAPSIS":"548.605","BSTAR":"0.00004405700000","OBJECT_NAME":"STARLINK-1476","INCLINATION":"53.0523","GP_ID":"206989680","PERIOD":"95.592","MEAN_ANOMALY":"295.2276","CLASSIFICATION_TYPE":"U","ECCENTRICITY":"0.00020150","MEAN_MOTION_DDOT":"0.0000000000000","COUNTRY_CODE":"US","MEAN_MOTION":"15.06401331","SITE":"AFETR","EPHEMERIS_TYPE":"0","OBJECT_ID":"2020-038Z","LAUNCH_DATE":"2020-06-13","TLE_LINE1":"1 45753U 20038Z   22178.68748704  .00000375  00000-0  44057-4 0  9990","RA_OF_ASC_NODE":"161.5075","SEMIMAJOR_AXIS":"6925.344","ELEMENT_SET_NO":"999","NORAD_CAT_ID":"45753","REF_FRAME":"TEME","DECAY_DATE":null,"OBJECT_TYPE":"PAYLOAD","ARG_OF_PERICENTER":"64.8922","FILE":"3504144"},{"REV_AT_EPOCH":"11285","TLE_LINE2":"2 45754  53.0536 161.4848 0001570  76.6657 283.4507 15.06387896112850","EPOCH":"2022-06-27T16:35:17.380896","TIME_SYSTEM":"UTC","CENTER_NAME":"EARTH","MEAN_MOTION_DOT":"-0.00001427","PERIAPSIS":"546.163","MEAN_ELEMENT_THEORY":"SGP4","RCS_SIZE":"LARGE","OBJECT_NAME":"STARLINK-1477","APOAPSIS":"548.338","BSTAR":"-0.00007697000000","GP_ID":"206988932","INCLINATION":"53.0536","PERIOD":"95.593","MEAN_ANOMALY":"283.4507","MEAN_MOTION_DDOT":"0.0000000000000","ECCENTRICITY":"0.00015700","CLASSIFICATION_TYPE":"U","SITE":"AFETR","EPHEMERIS_TYPE":"0","COUNTRY_CODE":"US","MEAN_MOTION":"15.06387896","LAUNCH_DATE":"2020-06-13","OBJECT_ID":"2020-038AA","SEMIMAJOR_AXIS":"6925.386","ELEMENT_SET_NO":"999","TLE_LINE1":"1 45754U 20038AA  22178.69117339 -.00001427  00000-0 -76970-4 0  9996","RA_OF_ASC_NODE":"161.4848","DECAY_DATE":null,"REF_FRAME":"TEME","NORAD_CAT_ID":"45754","OBJECT_TYPE":"PAYLOAD","ARG_OF_PERICENTER":"76.6657","FILE":"3504144"},{"EPOCH":"2022-06-27T21:48:27.018720","TIME_SYSTEM":"UTC","CENTER_NAME":"EARTH","TLE_LINE2":"2 45755  53.0524 160.5152 0001598  59.0267 301.0879 15.06393860112877","REV_AT_EPOCH":"11287","OBJECT_NAME":"STARLINK-1478","BSTAR":"-0.00002238800000","APOAPSIS":"548.339","PERIAPSIS":"546.126","MEAN_MOTION_DOT":"-0.00000615","RCS_SIZE":"LARGE","MEAN_ELEMENT_THEORY":"SGP4","MEAN_ANOMALY":"301.0879","PERIOD":"95.593","INCLINATION":"53.0524","GP_ID":"206989182","EPHEMERIS_TYPE":"0","SITE":"AFETR","MEAN_MOTION":"15.06393860","COUNTRY_CODE":"US","MEAN_MOTION_DDOT":"0.0000000000000","CLASSIFICATION_TYPE":"U","ECCENTRICITY":"0.00015980","LAUNCH_DATE":"2020-06-13","OBJECT_ID":"2020-038AB","DECAY_DATE":null,"REF_FRAME":"TEME","NORAD_CAT_ID":"45755","SEMIMAJOR_AXIS":"6925.367","ELEMENT_SET_NO":"999","RA_OF_ASC_NODE":"160.5152","TLE_LINE1":"1 45755U 20038AB  22178.90864605 -.00000615  00000-0 -22388-4 0  9998","ARG_OF_PERICENTER":"59.0267","OBJECT_TYPE":"PAYLOAD","FILE":"3504144"},{"BSTAR":"0.00010106000000","APOAPSIS":"548.342","OBJECT_NAME":"STARLINK-1484","RCS_SIZE":"LARGE","MEAN_ELEMENT_THEORY":"SGP4","PERIAPSIS":"546.127","MEAN_MOTION_DOT":"0.00001224","TIME_SYSTEM":"UTC","CENTER_NAME":"EARTH","EPOCH":"2022-06-27T05:46:22.928160","TLE_LINE2":"2 45756  53.0547 163.5024 0001599  58.8384 301.2761 15.06393281112770","REV_AT_EPOCH":"11277","MEAN_MOTION":"15.06393281","COUNTRY_CODE":"US","EPHEMERIS_TYPE":"0","SITE":"AFETR","ECCENTRICITY":"0.00015990","CLASSIFICATION_TYPE":"U","MEAN_MOTION_DDOT":"0.0000000000000","PERIOD":"95.593","MEAN_ANOMALY":"301.2761","INCLINATION":"53.0547","GP_ID":"206960384","NORAD_CAT_ID":"45756","REF_FRAME":"TEME","DECAY_DATE":null,"RA_OF_ASC_NODE":"163.5024","TLE_LINE1":"1 45756U 20038AC  22178.24054315  .00001224  00000-0  10106-3 0  9994","SEMIMAJOR_AXIS":"6925.369","ELEMENT_SET_NO":"999","OBJECT_ID":"2020-038AC","LAUNCH_DATE":"2020-06-13","FILE":"3503902","ARG_OF_PERICENTER":"58.8384","OBJECT_TYPE":"PAYLOAD"},{"FILE":"3503902","OBJECT_TYPE":"PAYLOAD","ARG_OF_PERICENTER":"53.5721","SEMIMAJOR_AXIS":"6925.367","ELEMENT_SET_NO":"999","RA_OF_ASC_NODE":"163.1288","TLE_LINE1":"1 45757U 20038AD  22178.32626304  .00001446  00000-0  11598-3 0  9999","DECAY_DATE":null,"REF_FRAME":"TEME","NORAD_CAT_ID":"45757","LAUNCH_DATE":"2020-06-13","OBJECT_ID":"2020-038AD","MEAN_MOTION_DDOT":"0.0000000000000","CLASSIFICATION_TYPE":"U","ECCENTRICITY":"0.00020270","SITE":"AFETR","EPHEMERIS_TYPE":"0","COUNTRY_CODE":"US","MEAN_MOTION":"15.06394108","GP_ID":"206959135","INCLINATION":"53.0544","MEAN_ANOMALY":"306.5455","PERIOD":"95.593","MEAN_MOTION_DOT":"0.00001446","PERIAPSIS":"545.828","MEAN_ELEMENT_THEORY":"SGP4","RCS_SIZE":"LARGE","OBJECT_NAME":"STARLINK-1486","APOAPSIS":"548.635","BSTAR":"0.00011598000000","REV_AT_EPOCH":"11278","TLE_LINE2":"2 45757  53.0544 163.1288 0002027  53.5721 306.5455 15.06394108112788","EPOCH":"2022-06-27T07:49:49.126656","CENTER_NAME":"EARTH","TIME_SYSTEM":"UTC"},{"SEMIMAJOR_AXIS":"6925.338","ELEMENT_SET_NO":"999","TLE_LINE1":"1 45758U 20038AE  22178.65061948  .00001492  00000-0  11904-3 0  9995","RA_OF_ASC_NODE":"161.6663","DECAY_DATE":null,"REF_FRAME":"TEME","NORAD_CAT_ID":"45758","LAUNCH_DATE":"2020-06-13","OBJECT_ID":"2020-038AE","FILE":"3504144","OBJECT_TYPE":"PAYLOAD","ARG_OF_PERICENTER":"58.7404","MEAN_MOTION_DOT":"0.00001492","PERIAPSIS":"545.821","MEAN_ELEMENT_THEORY":"SGP4","RCS_SIZE":"LARGE","OBJECT_NAME":"STARLINK-1487","APOAPSIS":"548.585","BSTAR":"0.00011904000000","REV_AT_EPOCH":"11283","TLE_LINE2":"2 45758  53.0543 161.6663 0001995  58.7404 301.3780 15.06403455112832","EPOCH":"2022-06-27T15:36:53.523072","CENTER_NAME":"EARTH","TIME_SYSTEM":"UTC","MEAN_MOTION_DDOT":"0.0000000000000","ECCENTRICITY":"0.00019950","CLASSIFICATION_TYPE":"U","SITE":"AFETR","EPHEMERIS_TYPE":"0","COUNTRY_CODE":"US","MEAN_MOTION":"15.06403455","INCLINATION":"53.0543","GP_ID":"206988433","PERIOD":"95.592","MEAN_ANOMALY":"301.3780"},{"FILE":"3503902","ARG_OF_PERICENTER":"47.8459","OBJECT_TYPE":"PAYLOAD","NORAD_CAT_ID":"45759","DECAY_DATE":null,"REF_FRAME":"TEME","TLE_LINE1":"1 45759U 20038AF  22178.36681720  .00001437  00000-0  11538-3 0  9992","RA_OF_ASC_NODE":"162.9441","SEMIMAJOR_AXIS":"6925.361","ELEMENT_SET_NO":"999","OBJECT_ID":"2020-038AF","LAUNCH_DATE":"2020-06-13","MEAN_MOTION":"15.06396023","COUNTRY_CODE":"US","EPHEMERIS_TYPE":"0","SITE":"AFETR","ECCENTRICITY":"0.00020760","CLASSIFICATION_TYPE":"U","MEAN_MOTION_DDOT":"0.0000000000000","MEAN_ANOMALY":"312.2706","PERIOD":"95.592","INCLINATION":"53.0556","GP_ID":"206960137","BSTAR":"0.00011538000000","APOAPSIS":"548.663","OBJECT_NAME":"STARLINK-1493","RCS_SIZE":"LARGE","MEAN_ELEMENT_THEORY":"SGP4","PERIAPSIS":"545.788","MEAN_MOTION_DOT":"0.00001437","CENTER_NAME":"EARTH","TIME_SYSTEM":"UTC","EPOCH":"2022-06-27T08:48:13.006080","TLE_LINE2":"2 45759  53.0556 162.9441 0002076  47.8459 312.2706 15.06396023112791","REV_AT_EPOCH":"11279"},{"ARG_OF_PERICENTER":"60.1050","OBJECT_TYPE":"PAYLOAD","FILE":"3503902","LAUNCH_DATE":"2020-06-13","OBJECT_ID":"2020-038AG","DECAY_DATE":null,"REF_FRAME":"TEME","NORAD_CAT_ID":"45760","SEMIMAJOR_AXIS":"6925.336","ELEMENT_SET_NO":"999","TLE_LINE1":"1 45760U 20038AG  22178.23779526  .00001261  00000-0  10354-3 0  9992","RA_OF_ASC_NODE":"163.5297","PERIOD":"95.592","MEAN_ANOMALY":"300.0141","GP_ID":"206959885","INCLINATION":"53.0526","EPHEMERIS_TYPE":"0","SITE":"AFETR","MEAN_MOTION":"15.06404036","COUNTRY_CODE":"US","MEAN_MOTION_DDOT":"0.0000000000000","CLASSIFICATION_TYPE":"U","ECCENTRICITY":"0.00020400","EPOCH":"2022-06-27T05:42:25.510464","CENTER_NAME":"EARTH","TIME_SYSTEM":"UTC","TLE_LINE2":"2 45760  53.0526 163.5297 0002040  60.1050 300.0141 15.06404036112783","REV_AT_EPOCH":"11278","OBJECT_NAME":"STARLINK-1494","BSTAR":"0.00010354000000","APOAPSIS":"548.614","PERIAPSIS":"545.788","MEAN_MOTION_DOT":"0.00001261","RCS_SIZE":"LARGE","MEAN_ELEMENT_THEORY":"SGP4"},{"SEMIMAJOR_AXIS":"6717.953","ELEMENT_SET_NO":"999","TLE_LINE1":"1 45761U 20038AH  22178.85992533 -.00013393  00000-0 -78031-4 0  9994","RA_OF_ASC_NODE":"39.7162","DECAY_DATE":null,"REF_FRAME":"TEME","NORAD_CAT_ID":"45761","LAUNCH_DATE":"2020-06-13","OBJECT_ID":"2020-038AH","FILE":"3504144","ARG_OF_PERICENTER":"8.9506","OBJECT_TYPE":"PAYLOAD","PERIAPSIS":"337.841","MEAN_MOTION_DOT":"-0.00013393","RCS_SIZE":"LARGE","MEAN_ELEMENT_THEORY":"SGP4","OBJECT_NAME":"STARLINK-1495","BSTAR":"-0.00007803100000","APOAPSIS":"341.796","TLE_LINE2":"2 45761  53.0471  39.7162 0002944   8.9506 351.1565 15.76693556114588","REV_AT_EPOCH":"11458","EPOCH":"2022-06-27T20:38:17.548512","TIME_SYSTEM":"UTC","CENTER_NAME":"EARTH","MEAN_MOTION_DDOT":"0.0000000000000","ECCENTRICITY":"0.00029440","CLASSIFICATION_TYPE":"U","EPHEMERIS_TYPE":"0","SITE":"AFETR","MEAN_MOTION":"15.76693556","COUNTRY_CODE":"US","INCLINATION":"53.0471","GP_ID":"206989681","PERIOD":"91.330","MEAN_ANOMALY":"351.1565"}];
